NORAD_CAT_ID,OBJECT_NAME,OBJECT_TYPE,EPOCH,MEAN_MOTION,ECCENTRICITY,INCLINATION,RA_OF_ASC_NODE,ARG_OF_PERICENTER,MEAN_ANOMALY,BSTAR,MEAN_MOTION_DOT,MEAN_MOTION_DDOT,TLE_LINE0,TLE_LINE1,TLE_LINE2,SEMIMAJOR_AXIS,PERIOD,APOGEE,PERIGEE,DECAYED
55754.0,STARLINK-5612,PAYLOAD,2024-06-24 23:04:56,14.98330439,0.0003181,70.0004,14.4934,261.6127,98.4671,6.0404e-05,6.28e-06,0.0,0 STARLINK-5612,1 55754U 23028P   24176.96176833  .00000628  00000-0  60404-4 0  9998,2 55754  70.0004  14.4934 0003181 261.6127  98.4671 14.98330439 72763,6950.192,96.107,574.267,569.846,0.0
55754.0,STARLINK-5612,PAYLOAD,2024-06-25 13:30:09,14.98332973,0.0003177,70.0003,12.9786,261.3133,98.7666,4.5776e-05,4.53e-06,0.0,0 STARLINK-5612,1 55754U 23028P   24177.56260684  .00000453  00000-0  45776-4 0  9994,2 55754  70.0003  12.9786 0003177 261.3133  98.7666 14.98332973 72851,6950.184,96.107,574.257,569.841,0.0
55754.0,STARLINK-5612,PAYLOAD,2024-06-25 21:30:49,14.98333926,0.0003154,70.0005,12.1367,262.851,97.229,4.931e-05,4.95e-06,0.0,0 STARLINK-5612,1 55754U 23028P   24177.89640563  .00000495  00000-0  49310-4 0  9992,2 55754  70.0005  12.1367 0003154 262.8510  97.2290 14.98333926 72902,6950.181,96.107,574.238,569.854,0.0
55754.0,STARLINK-5612,PAYLOAD,2024-06-25 23:06:57,14.98334177,0.0003162,70.0004,11.9683,263.8631,96.2168,5.0298e-05,5.07e-06,0.0,0 STARLINK-5612,1 55754U 23028P   24177.96316535  .00000507  00000-0  50298-4 0  9990,2 55754  70.0004  11.9683 0003162 263.8631  96.2168 14.98334177 72916,6950.18,96.107,574.243,569.847,0.0
55754.0,STARLINK-5612,PAYLOAD,2024-06-26 23:08:58,14.98333877,0.0003187,70.0004,9.4431,266.0309,94.0486,6.978e-05,7.4e-06,0.0,0 STARLINK-5612,1 55754U 23028P   24178.96456332  .00000740  00000-0  69780-4 0  9996,2 55754  70.0004   9.4431 0003187 266.0309  94.0486 14.98333877 73065,6950.181,96.107,574.261,569.831,0.0
55754.0,STARLINK-5612,PAYLOAD,2024-06-27 19:58:43,14.98330294,0.0003108,70.0006,7.2549,265.1071,94.9733,1.1468e-05,4.4e-07,0.0,0 STARLINK-5612,1 55754U 23028P   24179.83244704  .00000044  00000-0  11468-4 0  9998,2 55754  70.0006   7.2549 0003108 265.1071  94.9733 14.98330294 73190,6950.192,96.107,574.217,569.897,0.0
55754.0,STARLINK-5612,PAYLOAD,2024-06-27 21:34:51,14.98330788,0.0003106,70.0006,7.0866,264.8889,95.1916,1.5731e-05,9.5e-07,0.0,0 STARLINK-5612,1 55754U 23028P   24179.89920654  .00000095  00000-0  15731-4 0  9992,2 55754  70.0006   7.0866 0003106 264.8889  95.1916 14.98330788 73207,6950.19,96.107,574.214,569.897,0.0
55754.0,STARLINK-5612,PAYLOAD,2024-06-28 13:36:11,14.9833309,0.0003154,70.0003,5.4033,266.5451,93.5348,0.00010318,1.138e-05,0.0,0 STARLINK-5612,1 55754U 23028P   24180.56680212  .00001138  00000-0  10318-3 0  9995,2 55754  70.0003   5.4033 0003154 266.5451  93.5348 14.98333090 73300,6950.183,96.107,574.24,569.856,0.0
55754.0,STARLINK-5612,PAYLOAD,2024-06-28 21:36:51,14.98337932,0.0003099,70.0004,4.5615,267.0129,93.0675,0.00015263,1.729e-05,0.0,0 STARLINK-5612,1 55754U 23028P   24180.90059759  .00001729  00000-0  15263-3 0  9999,2 55754  70.0004   4.5615 0003099 267.0129  93.0675 14.98337932 73355,6950.168,96.106,574.187,569.88,0.0
55754.0,STARLINK-5612,PAYLOAD,2024-06-29 12:02:04,14.98326569,0.0002811,69.9993,3.0439,273.0905,86.9932,0.00014326,1.617e-05,0.0,0 STARLINK-5612,1 55754U 23028P   24181.50144660  .00001617  00000-0  14326-3 0  9997,2 55754  69.9993   3.0439 0002811 273.0905  86.9932 14.98326569 73448,6950.204,96.107,574.022,570.115,0.0
55754.0,STARLINK-5612,PAYLOAD,2024-06-29 13:38:13,14.98317648,0.0003155,70.0003,2.8775,269.055,91.0248,-4.5326e-05,-6.34e-06,0.0,0 STARLINK-5612,1 55754U 23028P   24181.56821617 -.00000634  00000-0 -45326-4 0  9992,2 55754  70.0003   2.8775 0003155 269.0550  91.0248 14.98317648 73452,6950.231,96.108,574.289,569.903,0.0
55754.0,STARLINK-5612,PAYLOAD,2024-06-29 20:02:45,14.98323801,0.0003229,69.9999,2.2039,269.7541,90.3248,1.187e-06,-7.9e-07,0.0,0 STARLINK-5612,1 55754U 23028P   24181.83525302 -.00000079  00000-0  11870-5 0  9994,2 55754  69.9999   2.2039 0003229 269.7541  90.3248 14.98323801 73493,6950.212,96.107,574.321,569.833,0.0
55754.0,STARLINK-5612,PAYLOAD,2024-06-29 21:38:53,14.98323908,0.0003096,70.0002,2.0361,269.2088,90.8716,1.8992e-05,1.34e-06,0.0,0 STARLINK-5612,1 55754U 23028P   24181.90201310  .00000134  00000-0  18992-4 0  9994,2 55754  70.0002   2.0361 0003096 269.2088  90.8716 14.98323908 73505,6950.212,96.107,574.229,569.925,0.0
55754.0,STARLINK-5612,PAYLOAD,2024-06-30 13:40:13,14.98334907,0.0003141,70.0,0.3518,269.8039,90.276,9.7747e-05,1.074e-05,0.0,0 STARLINK-5612,1 55754U 23028P   24182.56960576  .00001074  00000-0  97747-4 0  9992,2 55754  70.0000   0.3518 0003141 269.8039  90.2760 14.98334907 73606,6950.178,96.107,574.226,569.86,0.0
55754.0,STARLINK-5612,PAYLOAD,2024-06-30 20:04:45,14.98341066,0.0003203,70.0014,359.6788,269.9476,90.1316,0.00024862,2.876e-05,0.0,0 STARLINK-5612,1 55754U 23028P   24182.83664310  .00002876  00000-0  24862-3 0  9997,2 55754  70.0014 359.6788 0003203 269.9476  90.1316 14.98341066 73649,6950.159,96.106,574.25,569.798,0.0
55754.0,STARLINK-5612,PAYLOAD,2024-06-30 21:40:53,14.98343202,0.0003189,70.0014,359.5104,269.9304,90.149,0.00029461,3.425e-05,0.0,0 STARLINK-5612,1 55754U 23028P   24182.90340193  .00003425  00000-0  29461-3 0  9996,2 55754  70.0014 359.5104 0003189 269.9304  90.1490 14.98343202 73651,6950.152,96.106,574.233,569.801,0.0
55754.0,STARLINK-5612,PAYLOAD,2024-07-01 12:06:07,14.98331573,0.0003085,70.002,357.9956,270.2676,89.813,0.00026867,3.114e-05,0.0,0 STARLINK-5612,1 55754U 23028P   24183.50424836  .00003114  00000-0  26867-3 0  9992,2 55754  70.0020 357.9956 0003085 270.2676  89.8130 14.98331573 73741,6950.188,96.107,574.197,569.909,0.0
55754.0,STARLINK-5612,PAYLOAD,2024-07-01 13:42:15,14.98332422,0.0003091,70.002,357.8272,270.2313,89.8492,0.00027189,3.153e-05,0.0,0 STARLINK-5612,1 55754U 23028P   24183.57100803  .00003153  00000-0  27189-3 0  9995,2 55754  70.0020 357.8272 0003091 270.2313  89.8492 14.98332422 73752,6950.185,96.107,574.199,569.902,0.0
55754.0,STARLINK-5612,PAYLOAD,2024-07-01 21:42:55,14.98339472,0.0003069,70.002,356.9854,269.7793,90.3014,0.00034088,3.978e-05,0.0,0 STARLINK-5612,1 55754U 23028P   24183.90480450  .00003978  00000-0  34088-3 0  9992,2 55754  70.0020 356.9854 0003069 269.7793  90.3014 14.98339472 73803,6950.164,96.106,574.162,569.896,0.0
55754.0,STARLINK-5612,PAYLOAD,2024-07-02 13:44:15,14.98333615,0.0003026,70.002,355.3021,268.6274,91.4538,2.6034e-05,2.18e-06,0.0,0 STARLINK-5612,1 55754U 23028P   24184.57240462  .00000218  00000-0  26034-4 0  9990,2 55754  70.0020 355.3021 0003026 268.6274  91.4538 14.98333615 73904,6950.182,96.107,574.15,569.944,0.0
55754.0,STARLINK-5612,PAYLOAD,2024-07-02 21:44:55,14.98336958,0.0003097,70.0017,354.4605,270.2428,89.8376,0.00010074,1.109e-05,0.0,0 STARLINK-5612,1 55754U 23028P   24184.90620278  .00001109  00000-0  10074-3 0  9990,2 55754  70.0017 354.4605 0003097 270.2428  89.8376 14.98336958 73955,6950.171,96.107,574.189,569.884,0.0
55754.0,STARLINK-5612,PAYLOAD,2024-07-03 13:46:16,14.98329504,0.0003087,70.0021,352.778,266.8566,93.224,0.00013154,1.477e-05,0.0,0 STARLINK-5612,1 55754U 23028P   24185.57380569  .00001477  00000-0  13154-3 0  9990,2 55754  70.0021 352.7780 0003087 266.8566  93.2240 14.98329504 74058,6950.194,96.107,574.205,569.914,0.0
55754.0,STARLINK-5612,PAYLOAD,2024-07-03 21:46:57,14.98313943,0.0003332,70.001,351.9364,271.2923,88.7854,0.00047322,5.556e-05,0.0,0 STARLINK-5612,1 55754U 23028P   24185.90761207  .00005556  00000-0  47322-3 0  9995,2 55754  70.0010 351.9364 0003332 271.2923  88.7854 14.98313943 74101,6950.243,96.108,574.423,569.792,0.0
55754.0,STARLINK-5612,PAYLOAD,2024-07-04 13:48:17,14.98330207,0.0002869,70.001,350.253,266.6127,93.4703,7.6513e-05,8.2e-06,0.0,0 STARLINK-5612,1 55754U 23028P   24186.57520578  .00000820  00000-0  76513-4 0  9997,2 55754  70.0010 350.2530 0002869 266.6127  93.4703 14.98330207 74205,6950.192,96.107,574.051,570.063,0.0
55754.0,STARLINK-5612,PAYLOAD,2024-07-04 20:12:49,14.98331183,0.0002886,70.001,349.5796,267.5227,92.5602,7.643e-05,8.19e-06,0.0,0 STARLINK-5612,1 55754U 23028P   24186.84224528  .00000819  00000-0  76430-4 0  9999,2 55754  70.0010 349.5796 0002886 267.5227  92.5602 14.98331183 74246,6950.189,96.107,574.06,570.048,0.0
55754.0,STARLINK-5612,PAYLOAD,2024-07-05 13:50:18,14.98328716,0.0002973,70.0009,347.7282,269.8258,90.256,3.9363e-05,3.77e-06,0.0,0 STARLINK-5612,1 55754U 23028P   24187.57660757  .00000377  00000-0  39363-4 0  9991,2 55754  70.0009 347.7282 0002973 269.8258  90.2560 14.98328716 74358,6950.197,96.107,574.128,569.996,0.0
55754.0,STARLINK-5612,PAYLOAD,2024-07-05 20:14:50,14.98332348,0.0002947,70.0009,347.055,269.8964,90.1857,7.4301e-05,7.94e-06,0.0,0 STARLINK-5612,1 55754U 23028P   24187.84364443  .00000794  00000-0  74301-4 0  9998,2 55754  70.0009 347.0550 0002947 269.8964  90.1857 14.98332348 74392,6950.186,96.107,574.099,570.002,0.0
55754.0,STARLINK-5612,PAYLOAD,2024-07-06 13:52:19,14.98330061,0.000296,70.001,345.2033,269.8374,90.2446,5.7483e-05,5.93e-06,0.0,0 STARLINK-5612,1 55754U 23028P   24188.57800533  .00000593  00000-0  57483-4 0  9993,2 55754  70.0010 345.2033 0002960 269.8374  90.2446 14.98330061 74508,6950.193,96.107,574.115,570.0,0.0
55754.0,STARLINK-5612,PAYLOAD,2024-07-06 20:16:51,14.98332074,0.0002984,70.001,344.5303,270.4633,89.6184,6.0016e-05,6.23e-06,0.0,0 STARLINK-5612,1 55754U 23028P   24188.84504401  .00000623  00000-0  60016-4 0  9998,2 55754  70.0010 344.5303 0002984 270.4633  89.6184 14.98332074 74543,6950.186,96.107,574.125,569.978,0.0
55754.0,STARLINK-5612,PAYLOAD,2024-07-07 13:54:20,14.98330272,0.0002932,70.0012,342.678,270.753,89.3293,8.1368e-05,8.78e-06,0.0,0 STARLINK-5612,1 55754U 23028P   24189.57940471  .00000878  00000-0  81368-4 0  9995,2 55754  70.0012 342.6780 0002932 270.7530  89.3293 14.98330272 74653,6950.192,96.107,574.095,570.019,0.0
